STARLINK-36634          
1 67593U 26018E   26158.45548855  .00019752  00000+0  61240-3 0  9992
2 67593  97.2842 223.4346 0000307 125.7707 234.3565 15.33453009 21090
STARLINK-36638          
1 67594U 26018F   26158.42830258  .00030724  00000+0  94984-3 0  9994
2 67594  97.2834 223.3190 0000726 109.7611 250.3710 15.33454910 21080
STARLINK-36628          
1 67595U 26018G   26158.14552852  .00028805  00000+0  89112-3 0  9999
2 67595  97.2851 223.0895 0000571  85.6830 274.4478 15.33447390 21040
STARLINK-36629          
1 67596U 26018H   26158.15367146  .00028843  00000+0  89132-3 0  9995
2 67596  97.2852 223.0811 0001213 121.9784 238.1577 15.33480618 21043
STARLINK-36384          
1 67597U 26018J   26158.43916900  .00019932  00000+0  61780-3 0  9993
2 67597  97.2840 223.4575 0000488 118.9120 241.2171 15.33460064 21098
STARLINK-36358          
1 67598U 26018K   26158.14824824  .00022746  00000+0  70492-3 0  9992
2 67598  97.2842 223.0868 0000375 102.4645 257.6640 15.33438241 21046
STARLINK-36582          
1 67599U 26018L   26158.45821029  .00024208  00000+0  74956-3 0  9995
2 67599  97.2848 223.4293 0000873 101.1836 258.9504 15.33454040 21149
STARLINK-36640          
1 67600U 26018M   26158.15095323  .00017195  00000+0  53355-3 0  9992
2 67600  97.2843 223.0865 0001267 132.5609 227.5740 15.33456579 21044
STARLINK-36635          
1 67601U 26018N   26158.44460990  .00026864  00000+0  83090-3 0  9993
2 67601  97.2840 223.4491 0001667 102.3268 257.8162 15.33467457 21097
STARLINK-36631          
1 67602U 26018P   26158.43645808  .00035792  00000+0  11046-2 0  9997
2 67602  97.2841 223.4621 0001693  99.0329 261.1105 15.33477361 21093
STARLINK-36626          
1 67603U 26018Q   26158.45276882  .00030531  00000+0  94353-3 0  9991
2 67603  97.2840 223.4384 0001044  99.8394 260.2967 15.33468277 21091
STARLINK-36605          
1 67604U 26018R   26158.14279567  .00036481  00000+0  11256-2 0  9991
2 67604  97.2860 223.0950 0000557  88.7435 271.3871 15.33482690 21047
STARLINK-36281          
1 67605U 26018S   26158.42287845  .00047663  00000+0  14675-2 0  9993
2 67605  97.2835 223.3288 0000884  98.4232 261.7111 15.33487121 21081
STARLINK-35843          
1 67606U 26018T   26158.13738127  .00019722  00000+0  61204-3 0  9992
2 67606  97.2844 223.1039 0000923 120.0679 240.0656 15.33422569 21040
STARLINK-36351          
1 67607U 26018U   26158.18902797  .00024130  00000+0  74690-3 0  9996
2 67607  97.2840 223.1861 0002174 129.4116 230.7319 15.33463283 21050
STARLINK-36411          
1 67608U 26018V   26158.42558258  .00025021  00000+0  77434-3 0  9992
2 67608  97.2844 223.3260 0002547  95.7676 264.3857 15.33461665 21085
STARLINK-36312          
1 67609U 26018W   26158.44732909  .00025957  00000+0  80334-3 0  9993
2 67609  97.2819 223.4423 0001286  90.9335 269.2055 15.33455133 21096
STARLINK-36387          
1 67610U 26018X   26158.37661181  .00300359  00000+0  19374-2 0  9997
2 67610  97.2847 228.7333 0001266 137.6847 222.4516 15.75276161 21431
STARLINK-36636          
1 67611U 26018Y   26158.43101338  .00033153  00000+0  10240-2 0  9996
2 67611  97.2833 223.3162 0000608 184.0836 176.0402 15.33469440 21088
STARLINK-36407          
1 67612U 26018Z   26158.44189264  .00028332  00000+0  87620-3 0  9992
2 67612  97.2838 223.4540 0001142  99.7469 260.3903 15.33460631 21146
STARLINK-36597          
1 67613U 26018AA  26158.41742488  .00022899  00000+0  70912-3 0  9991
2 67613  97.2830 223.3361 0001139  94.9827 265.1546 15.33460817 21085
STARLINK-36548          
1 67617U 26020A   26157.83444582  .00018721  00000+0  68766-3 0  9990
2 67617  43.0002 356.6531 0001069 256.8740 103.1992 15.27601696 19744
STARLINK-36601          
1 67618U 26020B   26157.82030595  .00034566  00000+0  12583-2 0  9995
2 67618  43.0009 356.5263 0001274 276.7567  83.3139 15.27618315 19747
STARLINK-36119          
1 67619U 26020C   26157.95878875  .00038046  00000+0  13832-2 0  9996
2 67619  43.0007 355.8610 0001558 266.1422  93.9252 15.27621998 19768
STARLINK-36607          
1 67620U 26020D   26158.24332876  .00018514  00000+0  68015-3 0  9999
2 67620  42.9945 353.6762 0002561 278.9690  81.0872 15.27600128 19810
STARLINK-36615          
1 67621U 26020E   26158.22932139  .00031108  00000+0  11337-2 0  9994
2 67621  43.0008 354.4297 0003023 276.8637  83.1871 15.27621063 19809
STARLINK-36614          
1 67622U 26020F   26157.81774052  .00043188  00000+0  15682-2 0  9995
2 67622  43.0027 356.5170 0001418 267.6852  92.3837 15.27613420 19742
STARLINK-36600          
1 67623U 26020G   26157.95493112  .00031314  00000+0  11412-2 0  9991
2 67623  43.0027 355.8315 0001687 257.7688 102.2975 15.27621774 19768
STARLINK-36439          
1 67624U 26020H   26157.67669015  .00027752  00000+0  10130-2 0  9995
2 67624  43.0010 357.1848 0000997 303.7213  56.3544 15.27619581 19726
STARLINK-36438          
1 67625U 26020J   26158.27285778  .00029039  00000+0  10590-2 0  9993
2 67625  43.0181 353.9178 0006687 276.2503  83.7587 15.27612085 19817
