OBJECT_NAME,OBJECT_ID,EPOCH,MEAN_MOTION,ECCENTRICITY,INCLINATION,RA_OF_ASC_NODE,ARG_OF_PERICENTER,MEAN_ANOMALY,EPHEMERIS_TYPE,CLASSIFICATION_TYPE,NORAD_CAT_ID,ELEMENT_SET_NO,REV_AT_EPOCH,BSTAR,MEAN_MOTION_DOT,MEAN_MOTION_DDOT
STARLINK-36634,2026-018E,2026-06-07T10:55:54.210720,15.33453009,.0000307,97.2842,223.4346,125.7707,234.3565,0,U,67593,999,2109,.6124E-3,.19752E-3,0
STARLINK-36638,2026-018F,2026-06-07T10:16:45.342912,15.33454910,.0000726,97.2834,223.3190,109.7611,250.3710,0,U,67594,999,2108,.94984E-3,.30724E-3,0
STARLINK-36628,2026-018G,2026-06-07T03:29:33.664128,15.33447390,.0000571,97.2851,223.0895,85.6830,274.4478,0,U,67595,999,2104,.89112E-3,.28805E-3,0
STARLINK-36629,2026-018H,2026-06-07T03:41:17.214144,15.33480618,.0001213,97.2852,223.0811,121.9784,238.1577,0,U,67596,999,2104,.89132E-3,.28843E-3,0
STARLINK-36384,2026-018J,2026-06-07T10:32:24.201600,15.33460064,.0000488,97.2840,223.4575,118.9120,241.2171,0,U,67597,999,2109,.6178E-3,.19932E-3,0
STARLINK-36358,2026-018K,2026-06-07T03:33:28.647936,15.33438241,.0000375,97.2842,223.0868,102.4645,257.6640,0,U,67598,999,2104,.70492E-3,.22746E-3,0
STARLINK-36582,2026-018L,2026-06-07T10:59:49.369056,15.33454040,.0000873,97.2848,223.4293,101.1836,258.9504,0,U,67599,999,2114,.74956E-3,.24208E-3,0
STARLINK-36640,2026-018M,2026-06-07T03:37:22.359072,15.33456579,.0001267,97.2843,223.0865,132.5609,227.5740,0,U,67600,999,2104,.53355E-3,.17195E-3,0
STARLINK-36635,2026-018N,2026-06-07T10:40:14.295360,15.33467457,.0001667,97.2840,223.4491,102.3268,257.8162,0,U,67601,999,2109,.8309E-3,.26864E-3,0
STARLINK-36631,2026-018P,2026-06-07T10:28:29.978112,15.33477361,.0001693,97.2841,223.4621,99.0329,261.1105,0,U,67602,999,2109,.11046E-2,.35792E-3,0
STARLINK-36626,2026-018Q,2026-06-07T10:51:59.226048,15.33468277,.0001044,97.2840,223.4384,99.8394,260.2967,0,U,67603,999,2109,.94353E-3,.30531E-3,0
STARLINK-36605,2026-018R,2026-06-07T03:25:37.545888,15.33482690,.0000557,97.2860,223.0950,88.7435,271.3871,0,U,67604,999,2104,.11256E-2,.36481E-3,0
STARLINK-36281,2026-018S,2026-06-07T10:08:56.698080,15.33487121,.0000884,97.2835,223.3288,98.4232,261.7111,0,U,67605,999,2108,.14675E-2,.47663E-3,0
STARLINK-35843,2026-018T,2026-06-07T03:17:49.741728,15.33422569,.0000923,97.2844,223.1039,120.0679,240.0656,0,U,67606,999,2104,.61204E-3,.19722E-3,0
STARLINK-36351,2026-018U,2026-06-07T04:32:12.016608,15.33463283,.0002174,97.2840,223.1861,129.4116,230.7319,0,U,67607,999,2105,.7469E-3,.2413E-3,0
STARLINK-36411,2026-018V,2026-06-07T10:12:50.334912,15.33461665,.0002547,97.2844,223.3260,95.7676,264.3857,0,U,67608,999,2108,.77434E-3,.25021E-3,0
STARLINK-36312,2026-018W,2026-06-07T10:44:09.233376,15.33455133,.0001286,97.2819,223.4423,90.9335,269.2055,0,U,67609,999,2109,.80334E-3,.25957E-3,0
STARLINK-36387,2026-018X,2026-06-07T09:02:19.260384,15.75276161,.0001266,97.2847,228.7333,137.6847,222.4516,0,U,67610,999,2143,.19374E-2,.300359E-2,0
STARLINK-36636,2026-018Y,2026-06-07T10:20:39.556032,15.33469440,.0000608,97.2833,223.3162,184.0836,176.0402,0,U,67611,999,2108,.1024E-2,.33153E-3,0
STARLINK-36407,2026-018Z,2026-06-07T10:36:19.524096,15.33460631,.0001142,97.2838,223.4540,99.7469,260.3903,0,U,67612,999,2114,.8762E-3,.28332E-3,0
STARLINK-36597,2026-018AA,2026-06-07T10:01:05.509632,15.33460817,.0001139,97.2830,223.3361,94.9827,265.1546,0,U,67613,999,2108,.70912E-3,.22899E-3,0
STARLINK-36548,2026-020A,2026-06-06T20:01:36.118848,15.27601696,.00010693,43.0002,356.6531,256.8740,103.1992,0,U,67617,999,1974,.68766394E-3,.18721E-3,0
STARLINK-36601,2026-020B,2026-06-06T19:41:14.434080,15.27618315,.0001274,43.0009,356.5263,276.7567,83.3139,0,U,67618,999,1974,.1258265E-2,.34566E-3,0
STARLINK-36119,2026-020C,2026-06-06T23:00:39.348000,15.27621998,.0001558,43.0007,355.8610,266.1422,93.9252,0,U,67619,999,1976,.13832E-2,.38046E-3,0
STARLINK-36607,2026-020D,2026-06-07T05:50:23.604864,15.27600128,.0002561,42.9945,353.6762,278.9690,81.0872,0,U,67620,999,1981,.68015E-3,.18514E-3,0
STARLINK-36615,2026-020E,2026-06-07T05:30:13.368096,15.27621063,.0003023,43.0008,354.4297,276.8637,83.1871,0,U,67621,999,1980,.11337E-2,.31108E-3,0
STARLINK-36614,2026-020F,2026-06-06T19:37:32.780928,15.27613420,.00014181,43.0027,356.5170,267.6852,92.3837,0,U,67622,999,1974,.15681962E-2,.43188E-3,0
STARLINK-36600,2026-020G,2026-06-06T22:55:06.048768,15.27621774,.0001687,43.0027,355.8315,257.7688,102.2975,0,U,67623,999,1976,.11412E-2,.31314E-3,0
STARLINK-36439,2026-020H,2026-06-06T16:14:26.028960,15.27619581,.00009977,43.0010,357.1848,303.7213,56.3544,0,U,67624,999,1972,.10130131E-2,.27752E-3,0
STARLINK-36438,2026-020J,2026-06-07T06:32:54.912192,15.27612085,.0006687,43.0181,353.9178,276.2503,83.7587,0,U,67625,999,1981,.1059E-2,.29039E-3,0
